[{"OBJECT_NAME":"STARLINK-34964","OBJECT_ID":"2025-179E","EPOCH":"2026-03-09T16:34:15.186720","MEAN_MOTION":15.05664519,"ECCENTRICITY":0.00012328,"INCLINATION":97.6023,"RA_OF_ASC_NODE":112.8903,"ARG_OF_PERICENTER":134.1266,"MEAN_ANOMALY":226.0062,"EPHEMERIS_TYPE":0,"CLASSIFICATION_TYPE":"U","NORAD_CAT_ID":65239,"ELEMENT_SET_NO":999,"REV_AT_EPOCH":3181,"BSTAR":0.00028840105,"MEAN_MOTION_DOT":4.105e-5,"MEAN_MOTION_DDOT":0},{"OBJECT_NAME":"COSMOS 252 DEB","OBJECT_ID":"1968-097EJ","EPOCH":"2026-03-08T03:14:49.249536","MEAN_MOTION":13.20252107,"ECCENTRICITY":0.08649847,"INCLINATION":62.3495,"RA_OF_ASC_NODE":342.3911,"ARG_OF_PERICENTER":136.4436,"MEAN_ANOMALY":230.8291,"EPHEMERIS_TYPE":0,"CLASSIFICATION_TYPE":"U","NORAD_CAT_ID":18431,"ELEMENT_SET_NO":999,"REV_AT_EPOCH":43500,"BSTAR":0.00032551116,"MEAN_MOTION_DOT":9.11e-6,"MEAN_MOTION_DDOT":0}]
